{
  "type": "FeatureCollection",
  "features": [
    {
      "type": "Feature",
      "properties": {
        "norad_id": 38474,
        "name": "IRIDIUM 33 DEB",
        "group": "iridium-33-debris",
        "lat": 19.634981448430892,
        "lon": -166.69739718460883,
        "alt_km": 708.8518169594772,
        "timestamp": "2025-12-02T07:10:09.501817+00:00",
        "meta_object_name": "IRIDIUM 33 DEB",
        "meta_object_id": "1997-051AAB",
        "meta_epoch": "2025-11-29T08:54:08.657856",
        "meta_mean_motion": 14.50603208,
        "meta_eccentricity": 0.002717,
        "meta_inclination": 86.3442,
        "meta_ra_of_asc_node": 15.8845,
        "meta_arg_of_pericenter": 130.9322,
        "meta_mean_anomaly": 229.4241,
        "meta_ephemeris_type": 0,
        "meta_classification_type": "U",
        "meta_norad_cat_id": 38474,
        "meta_element_set_no": 999,
        "meta_rev_at_epoch": 65124,
        "meta_bstar": 0.00047302373,
        "meta_mean_motion_dot": 1.884e-05,
        "meta_mean_motion_ddot": 0,
        "tle_line1": "1 38474U 97051AAB 25333.37093354  .00001884  00000+0  47302-3 0  9997",
        "tle_line2": "2 38474  86.3442  15.8845 0027170 130.9322 229.4241 14.50603208651244"
      },
      "geometry": {
        "type": "Point",
        "coordinates": [
          -166.69739718460883,
          19.634981448430892
        ]
      }
    },
    {
      "type": "Feature",
      "properties": {
        "norad_id": 39777,
        "name": "IRIDIUM 33 DEB",
        "group": "iridium-33-debris",
        "lat": -2.713648937360306,
        "lon": 179.914911694234,
        "alt_km": 739.0621443594164,
        "timestamp": "2025-12-02T07:10:09.501827+00:00",
        "meta_object_name": "IRIDIUM 33 DEB",
        "meta_object_id": "1997-051AAJ",
        "meta_epoch": "2025-12-01T13:02:19.201056",
        "meta_mean_motion": 14.56024465,
        "meta_eccentricity": 0.00595889,
        "meta_inclination": 85.9622,
        "meta_ra_of_asc_node": 180.4732,
        "meta_arg_of_pericenter": 225.0821,
        "meta_mean_anomaly": 134.5543,
        "meta_ephemeris_type": 0,
        "meta_classification_type": "U",
        "meta_norad_cat_id": 39777,
        "meta_element_set_no": 999,
        "meta_rev_at_epoch": 60022,
        "meta_bstar": 0.0022774227,
        "meta_mean_motion_dot": 0.00010294,
        "meta_mean_motion_ddot": 0,
        "tle_line1": "1 39777U 97051AAJ 25335.54327779  .00010294  00000+0  22774-2 0  9996",
        "tle_line2": "2 39777  85.9622 180.4732 0059588 225.0821 134.5543 14.56024465600229"
      },
      "geometry": {
        "type": "Point",
        "coordinates": [
          179.914911694234,
          -2.713648937360306
        ]
      }
    },
    {
      "type": "Feature",
      "properties": {
        "norad_id": 39778,
        "name": "IRIDIUM 33 DEB",
        "group": "iridium-33-debris",
        "lat": -86.04096681591088,
        "lon": -66.0148617763485,
        "alt_km": 725.7039647656293,
        "timestamp": "2025-12-02T07:10:09.501837+00:00",
        "meta_object_name": "IRIDIUM 33 DEB",
        "meta_object_id": "1997-051AAK",
        "meta_epoch": "2025-11-28T22:39:52.364448",
        "meta_mean_motion": 14.54103709,
        "meta_eccentricity": 0.00090272,
        "meta_inclination": 86.3783,
        "meta_ra_of_asc_node": 49.2122,
        "meta_arg_of_pericenter": 80.8858,
        "meta_mean_anomaly": 279.337,
        "meta_ephemeris_type": 0,
        "meta_classification_type": "U",
        "meta_norad_cat_id": 39778,
        "meta_element_set_no": 999,
        "meta_rev_at_epoch": 60492,
        "meta_bstar": 0.0010078213,
        "meta_mean_motion_dot": 4.278e-05,
        "meta_mean_motion_ddot": 0,
        "tle_line1": "1 39778U 97051AAK 25332.94435607  .00004278  00000+0  10078-2 0  9997",
        "tle_line2": "2 39778  86.3783  49.2122 0009027  80.8858 279.3370 14.54103709604922"
      },
      "geometry": {
        "type": "Point",
        "coordinates": [
          -66.0148617763485,
          -86.04096681591088
        ]
      }
    },
    {
      "type": "Feature",
      "properties": {
        "norad_id": 39781,
        "name": "IRIDIUM 33 DEB",
        "group": "iridium-33-debris",
        "lat": -31.24551589448505,
        "lon": 84.48736227998751,
        "alt_km": 839.8609181810443,
        "timestamp": "2025-12-02T07:10:09.501848+00:00",
        "meta_object_name": "IRIDIUM 33 DEB",
        "meta_object_id": "1997-051AAN",
        "meta_epoch": "2025-12-01T14:05:13.737984",
        "meta_mean_motion": 14.20093316,
        "meta_eccentricity": 0.01818611,
        "meta_inclination": 86.3695,
        "meta_ra_of_asc_node": 262.5729,
        "meta_arg_of_pericenter": 308.3699,
        "meta_mean_anomaly": 228.4219,
        "meta_ephemeris_type": 0,
        "meta_classification_type": "U",
        "meta_norad_cat_id": 39781,
        "meta_element_set_no": 999,
        "meta_rev_at_epoch": 7948,
        "meta_bstar": 0.0058998753,
        "meta_mean_motion_dot": 0.00014872,
        "meta_mean_motion_ddot": 0,
        "tle_line1": "1 39781U 97051AAN 25335.58696456  .00014872  00000+0  58999-2 0  9990",
        "tle_line2": "2 39781  86.3695 262.5729 0181861 308.3699 228.4219 14.20093316 79488"
      },
      "geometry": {
        "type": "Point",
        "coordinates": [
          84.48736227998751,
          -31.24551589448505
        ]
      }
    },
    {
      "type": "Feature",
      "properties": {
        "norad_id": 39783,
        "name": "IRIDIUM 33 DEB",
        "group": "iridium-33-debris",
        "lat": -1.2379434710408956,
        "lon": -99.36985490390845,
        "alt_km": 491.1964672881477,
        "timestamp": "2025-12-02T07:10:09.501858+00:00",
        "meta_object_name": "IRIDIUM 33 DEB",
        "meta_object_id": "1997-051AAQ",
        "meta_epoch": "2025-11-16T15:05:40.850592",
        "meta_mean_motion": 15.19327111,
        "meta_eccentricity": 0.00057535,
        "meta_inclination": 86.1306,
        "meta_ra_of_asc_node": 268.8004,
        "meta_arg_of_pericenter": 179.9151,
        "meta_mean_anomaly": 1.8316,
        "meta_ephemeris_type": 0,
        "meta_classification_type": "U",
        "meta_norad_cat_id": 39783,
        "meta_element_set_no": 999,
        "meta_rev_at_epoch": 60401,
        "meta_bstar": 0.010398125,
        "meta_mean_motion_dot": 0.00226179,
        "meta_mean_motion_ddot": 0,
        "tle_line1": "1 39783U 97051AAQ 25320.62894503  .00226179  00000+0  10398-1 0  9999",
        "tle_line2": "2 39783  86.1306 268.8004 0005753 179.9151   1.8316 15.19327111604018"
      },
      "geometry": {
        "type": "Point",
        "coordinates": [
          -99.36985490390845,
          -1.2379434710408956
        ]
      }
    },
    {
      "type": "Feature",
      "properties": {
        "norad_id": 40996,
        "name": "IRIDIUM 33 DEB",
        "group": "iridium-33-debris",
        "lat": 73.29507389843546,
        "lon": 18.5541694646555,
        "alt_km": 566.7204304319812,
        "timestamp": "2025-12-02T07:10:09.501869+00:00",
        "meta_object_name": "IRIDIUM 33 DEB",
        "meta_object_id": "1997-051ABJ",
        "meta_epoch": "2025-11-30T01:58:04.991808",
        "meta_mean_motion": 14.95095343,
        "meta_eccentricity": 0.00120283,
        "meta_inclination": 86.3535,
        "meta_ra_of_asc_node": 7.3184,
        "meta_arg_of_pericenter": 99.499,
        "meta_mean_anomaly": 290.4978,
        "meta_ephemeris_type": 0,
        "meta_classification_type": "U",
        "meta_norad_cat_id": 40996,
        "meta_element_set_no": 999,
        "meta_rev_at_epoch": 62299,
        "meta_bstar": 0.0030307541,
        "meta_mean_motion_dot": 0.00033396,
        "meta_mean_motion_ddot": 0,
        "tle_line1": "1 40996U 97051ABJ 25334.08200222  .00033396  00000+0  30308-2 0  9992",
        "tle_line2": "2 40996  86.3535   7.3184 0012028  99.4990 290.4978 14.95095343622996"
      },
      "geometry": {
        "type": "Point",
        "coordinates": [
          18.5541694646555,
          73.29507389843546
        ]
      }
    },
    {
      "type": "Feature",
      "properties": {
        "norad_id": 40998,
        "name": "IRIDIUM 33 DEB",
        "group": "iridium-33-debris",
        "lat": -86.26078212077267,
        "lon": -17.275424154369556,
        "alt_km": 755.6521241307792,
        "timestamp": "2025-12-02T07:10:09.501893+00:00",
        "meta_object_name": "IRIDIUM 33 DEB",
        "meta_object_id": "1997-051ABL",
        "meta_epoch": "2025-12-01T11:54:41.054400",
        "meta_mean_motion": 14.45032716,
        "meta_eccentricity": 0.00094073,
        "meta_inclination": 86.3837,
        "meta_ra_of_asc_node": 58.458,
        "meta_arg_of_pericenter": 113.8463,
        "meta_mean_anomaly": 305.4754,
        "meta_ephemeris_type": 0,
        "meta_classification_type": "U",
        "meta_norad_cat_id": 40998,
        "meta_element_set_no": 999,
        "meta_rev_at_epoch": 6519,
        "meta_bstar": 0.00064363446,
        "meta_mean_motion_dot": 2.267e-05,
        "meta_mean_motion_ddot": 0,
        "tle_line1": "1 40998U 97051ABL 25335.49630850  .00002267  00000+0  64363-3 0  9996",
        "tle_line2": "2 40998  86.3837  58.4580 0009407 113.8463 305.4754 14.45032716 65195"
      },
      "geometry": {
        "type": "Point",
        "coordinates": [
          -17.275424154369556,
          -86.26078212077267
        ]
      }
    }
  ]
}